0 FENGYUN 1C DEB
1 31468U 99025BVG 13278.98093012  .00000794  00000-0  24037-3 0  1980
2 31468 098.6321 327.4200 0189498 221.4426 137.1786 14.35441199338661
0 FENGYUN 1C DEB
1 31468U 99025BVG 13282.95418312  .00000763  00000-0  23088-3 0  1998
2 31468 098.6306 331.3920 0190129 209.5987 149.4306 14.35447318339236
0 FENGYUN 1C DEB
1 31468U 99025BVG 13284.97565632  .00000781  00000-0  23626-3 0  2001
2 31468 098.6309 333.4158 0189845 203.6250 155.6156 14.35451000339523
0 FENGYUN 1C DEB
1 31468U 99025BVG 13288.94888558  .00000848  00000-0  25551-3 0  2011
2 31468 098.6321 337.3931 0188909 191.7463 167.9433 14.35459219340090
0 FENGYUN 1C DEB
1 31468U 99025BVG 13289.92476036  .00000858  00000-0  25758-3 0  2025
2 31468 098.6327 338.3633 0190258 188.7653 171.0415 14.35461341340234
